0 IRIDIUM 150
1 43257U 18030J   24004.36689834  .00000347  00000-0  11670-3 0  9992
2 43257  86.3975 304.4351 0002097  74.1090 286.0337 14.34215922301905
0 IRIDIUM 143
1 43258U 18030K   24003.92925339  .00000218  00000-0  70719-4 0  9994
2 43258  86.3976 304.6747 0001814  75.8690 284.2708 14.34219210301779
0 IRIDIUM 161
1 43478U 18047C   24004.24667776  .00000467  00000-0  13276-3 0  9990
2 43478  86.4493 102.5264 0002181  95.7435 264.4015 14.43289171296051
0 IRIDIUM 152
1 43479U 18047D   24003.76243321  .00000073  00000-0  19051-4 0  9994
2 43479  86.3967 102.5878 0001867 102.2090 257.9315 14.34217324294148
0 IRIDIUM 147
1 43480U 18047E   24004.39669084  .00000356  00000-0  12005-3 0  9999
2 43480  86.3968 102.3120 0002324  97.2313 262.9147 14.34219423294230
0 IRIDIUM 110
1 43481U 18047F   24004.12395992  .00000373  00000-0  12621-3 0  9998
2 43481  86.3969 102.4948 0002471  92.2874 267.8604 14.34219535294181
0 IRIDIUM 162
1 43482U 18047G   24003.82443824  .00000460  00000-0  13078-3 0  9997
2 43482  86.4492 102.6052 0002169  94.6061 265.5388 14.43287056295986
0 IRIDIUM 160
1 43569U 18061A   24003.72095379  .00000284  00000-0  94475-4 0  9991
2 43569  86.3956  71.0157 0002204 107.8941 252.2495 14.34218602285022
